SAR-LUPE 2              
1 31797U 07030A   26192.52637279  .00028384  00000+0  44779-3 0  9996
2 31797  98.1051 300.0491 0004583 215.8992 144.1952 15.53494591 60712
SAPPHIRE                
1 39088U 13009C   26192.49233041  .00000057  00000+0  34700-4 0  9996
2 39088  98.4271  11.3722 0011353 170.6333 189.5066 14.35246955700065
PRAETORIAN SDA_602      
1 65565U 25203A   26192.53107600  .00000042  00000+0  27181-4 0  9999
2 65565  81.3039 348.2274 0006980 125.9859 234.1946 13.83887785 42064
PRAETORIAN SDA_603      
1 65566U 25203B   26192.48726096  .00000091  00000+0  71580-4 0  9996
2 65566  81.3044 348.1899 0010651 124.0048 236.2122 13.83961899 42061
PRAETORIAN SDA_604      
1 65567U 25203C   26192.52238381  .00000042  00000+0  27271-4 0  9991
2 65567  81.3061 348.6073 0006473 129.6349 230.5379 13.83049951 42047
PRAETORIAN SDA_605      
1 65568U 25203D   26192.48247065  .00000023  00000+0  10395-4 0  9994
2 65568  81.3026 348.2872 0009244 122.1293 238.0762 13.83199767 42058
PRAETORIAN SDA_606      
1 65569U 25203E   26192.53998016  .00000042  00000+0  27473-4 0  9996
2 65569  81.3063 348.4706 0007087 124.3722 235.8105 13.83199956 42058
PRAETORIAN SDA_607      
1 65570U 25203F   26192.53181207  .00000142  00000+0  11732-3 0  9995
2 65570  81.3046 348.1019 0009861 123.3712 236.8389 13.83758815 42077
PRAETORIAN SDA_608      
1 65571U 25203G   26192.51449808  .00000046  00000+0  30343-4 0  9991
2 65571  81.3016 348.2835 0006969 128.6445 231.5336 13.83819270 42054
PRAETORIAN SDA_609      
1 65572U 25203H   26192.51251811  .00000153  00000+0  12666-3 0  9993
2 65572  81.3055 348.2640 0007838 123.5207 236.6699 13.84211938 42065
PRAETORIAN SDA_610      
1 65573U 25203J   26189.89209177  .00000045  00000+0  29958-4 0  9992
2 65573  81.3015 350.6711 0007648 134.1093 226.0694 13.83769338 41695
PRAETORIAN SDA_611      
1 65574U 25203K   26192.50395201  .00000052  00000+0  36552-4 0  9995
2 65574  81.3014 348.4361 0006571 132.0473 228.1244 13.83311397 42046
PRAETORIAN SDA_612      
1 65575U 25203L   26192.53546286  .00000143  00000+0  11545-3 0  9995
2 65575  81.3037 347.9337 0010231 123.7857 236.4276 13.85040942 42088
PRAETORIAN SDA_613      
1 65576U 25203M   26192.52025340  .00000041  00000+0  26786-4 0  9999
2 65576  81.3008 348.4368 0006688 123.2072 236.9726 13.82767439 42047
PRAETORIAN SDA_614      
1 65577U 25203N   26192.52923875  .00000040  00000+0  24699-4 0  9990
2 65577  81.3022 348.0229 0008159 121.6618 238.5336 13.84778490 42089
PRAETORIAN SDA_615      
1 65578U 25203P   26192.51211634  .00000076  00000+0  57248-4 0  9998
2 65578  81.3030 348.0178 0010060 122.7313 237.4815 13.84438360 42078
PRAETORIAN SDA_616      
1 65579U 25203Q   26192.50389054  .00000111  00000+0  90519-4 0  9998
2 65579  81.3068 348.5976 0006435 130.2511 229.9209 13.83270454 42043
PRAETORIAN SDA_617      
1 65580U 25203R   26192.52757081  .00000045  00000+0  29797-4 0  9997
2 65580  81.3046 348.4045 0008413 122.1570 238.0404 13.83151892 42053
PRAETORIAN SDA_618      
1 65581U 25203S   26192.47889623  .00000092  00000+0  71608-4 0  9990
2 65581  81.3029 347.9798 0010759 125.9417 234.2740 13.84225586 42077
PRAETORIAN SDA_619      
1 65582U 25203T   26192.52517932  .00000161  00000+0  13430-3 0  9993
2 65582  81.3052 348.2620 0009197 123.1924 237.0116 13.83806568 42699
PRAETORIAN SDA_620      
1 65583U 25203U   26192.48635701  .00000082  00000+0  63660-4 0  9997
2 65583  81.3039 348.3271 0008516 120.4183 239.7815 13.83207608 42054
PRAETORIAN SDA_621      
1 65584U 25203V   26192.52701215  .00000037  00000+0  22746-4 0  9997
2 65584  81.3029 348.1932 0008438 117.4010 242.8006 13.83803684 42068
PRAETORIAN SDA_601      
1 65585U 25203W   26192.50878449  .00000124  00000+0  10250-3 0  9993
2 65585  81.3044 348.5344 0006486 133.0933 227.0767 13.83170458 42049
VICTUS HAZE PUMA        
1 69646U 26142A   26192.49493289  .00002368  00000+0  10967-3 0  9998
2 69646  97.4474  89.8413 0025085 279.6701  80.1701 15.20831920  3363
