OBJECT_NAME,OBJECT_ID,EPOCH,MEAN_MOTION,ECCENTRICITY,INCLINATION,RA_OF_ASC_NODE,ARG_OF_PERICENTER,MEAN_ANOMALY,EPHEMERIS_TYPE,CLASSIFICATION_TYPE,NORAD_CAT_ID,ELEMENT_SET_NO,REV_AT_EPOCH,BSTAR,MEAN_MOTION_DOT,MEAN_MOTION_DDOT
SAR-LUPE 2,2007-030A,2026-07-11T12:37:58.609056,15.53494591,.0004583,98.1051,300.0491,215.8992,144.1952,0,U,31797,999,6071,.44779E-3,.28384E-3,0
SAPPHIRE,2013-009C,2026-07-11T11:48:57.347424,14.35246955,.0011353,98.4271,11.3722,170.6333,189.5066,0,U,39088,999,70006,.347E-4,.57E-6,0
PRAETORIAN SDA_602,2025-203A,2026-07-11T12:44:44.966400,13.83887785,.000698,81.3039,348.2274,125.9859,234.1946,0,U,65565,999,4206,.27181E-4,.42E-6,0
PRAETORIAN SDA_603,2025-203B,2026-07-11T11:41:39.346944,13.83961899,.0010651,81.3044,348.1899,124.0048,236.2122,0,U,65566,999,4206,.7158E-4,.91E-6,0
PRAETORIAN SDA_604,2025-203C,2026-07-11T12:32:13.961184,13.83049951,.0006473,81.3061,348.6073,129.6349,230.5379,0,U,65567,999,4204,.27271E-4,.42E-6,0
PRAETORIAN SDA_605,2025-203D,2026-07-11T11:34:45.464160,13.83199767,.0009244,81.3026,348.2872,122.1293,238.0762,0,U,65568,999,4205,.10395E-4,.23E-6,0
PRAETORIAN SDA_606,2025-203E,2026-07-11T12:57:34.285824,13.83199956,.0007087,81.3063,348.4706,124.3722,235.8105,0,U,65569,999,4205,.27473E-4,.42E-6,0
PRAETORIAN SDA_607,2025-203F,2026-07-11T12:45:48.562848,13.83758815,.0009861,81.3046,348.1019,123.3712,236.8389,0,U,65570,999,4207,.11732E-3,.142E-5,0
PRAETORIAN SDA_608,2025-203G,2026-07-11T12:20:52.634112,13.83819270,.0006969,81.3016,348.2835,128.6445,231.5336,0,U,65571,999,4205,.30343E-4,.46E-6,0
PRAETORIAN SDA_609,2025-203H,2026-07-11T12:18:01.564704,13.84211938,.0007838,81.3055,348.2640,123.5207,236.6699,0,U,65572,999,4206,.12666E-3,.153E-5,0
PRAETORIAN SDA_610,2025-203J,2026-07-08T21:24:36.728928,13.83769338,.00076481,81.3015,350.6711,134.1093,226.0694,0,U,65573,999,4169,.29957645E-4,.45E-6,0
PRAETORIAN SDA_611,2025-203K,2026-07-11T12:05:41.453664,13.83311397,.0006571,81.3014,348.4361,132.0473,228.1244,0,U,65574,999,4204,.36552E-4,.52E-6,0
PRAETORIAN SDA_612,2025-203L,2026-07-11T12:51:03.991104,13.85040942,.0010231,81.3037,347.9337,123.7857,236.4276,0,U,65575,999,4208,.11545E-3,.143E-5,0
PRAETORIAN SDA_613,2025-203M,2026-07-11T12:29:09.893760,13.82767439,.0006688,81.3008,348.4368,123.2072,236.9726,0,U,65576,999,4204,.26786E-4,.41E-6,0
PRAETORIAN SDA_614,2025-203N,2026-07-11T12:42:06.228000,13.84778490,.0008159,81.3022,348.0229,121.6618,238.5336,0,U,65577,999,4208,.24699E-4,.4E-6,0
PRAETORIAN SDA_615,2025-203P,2026-07-11T12:17:26.851776,13.84438360,.001006,81.3030,348.0178,122.7313,237.4815,0,U,65578,999,4207,.57248E-4,.76E-6,0
PRAETORIAN SDA_616,2025-203Q,2026-07-11T12:05:36.142656,13.83270454,.0006435,81.3068,348.5976,130.2511,229.9209,0,U,65579,999,4204,.90519E-4,.111E-5,0
PRAETORIAN SDA_617,2025-203R,2026-07-11T12:39:42.117984,13.83151892,.0008413,81.3046,348.4045,122.1570,238.0404,0,U,65580,999,4205,.29797E-4,.45E-6,0
PRAETORIAN SDA_618,2025-203S,2026-07-11T11:29:36.634272,13.84225586,.0010759,81.3029,347.9798,125.9417,234.2740,0,U,65581,999,4207,.71608E-4,.92E-6,0
PRAETORIAN SDA_619,2025-203T,2026-07-11T12:36:15.493248,13.83806568,.0009197,81.3052,348.2620,123.1924,237.0116,0,U,65582,999,4269,.1343E-3,.161E-5,0
PRAETORIAN SDA_620,2025-203U,2026-07-11T11:40:21.245664,13.83207608,.0008516,81.3039,348.3271,120.4183,239.7815,0,U,65583,999,4205,.6366E-4,.82E-6,0
PRAETORIAN SDA_621,2025-203V,2026-07-11T12:38:53.849760,13.83803684,.0008438,81.3029,348.1932,117.4010,242.8006,0,U,65584,999,4206,.22746E-4,.37E-6,0
PRAETORIAN SDA_601,2025-203W,2026-07-11T12:12:38.979936,13.83170458,.0006486,81.3044,348.5344,133.0933,227.0767,0,U,65585,999,4204,.1025E-3,.124E-5,0
VICTUS HAZE PUMA,2026-142A,2026-07-11T11:52:42.201696,15.20831920,.0025085,97.4474,89.8413,279.6701,80.1701,0,U,69646,999,336,.10967E-3,.2368E-4,0
